CCSDS_OMM_VERS = 2.0
CREATION_DATE  = 
ORIGINATOR     = 

OBJECT_NAME    = STARLINK-35864
OBJECT_ID      = 2025-298G
CENTER_NAME    = EARTH
REF_FRAME      = TEME
TIME_SYSTEM    = UTC
MEAN_ELEMENT_THEORY = SGP/SGP4

EPOCH          = 2026-01-08T04:00:01.998720
MEAN_MOTION    = 15.42701558
ECCENTRICITY   = .0003244
INCLINATION    = 70.0002
RA_OF_ASC_NODE = 175.9523
ARG_OF_PERICENTER = 275.8648
MEAN_ANOMALY   = 304.5859

EPHEMERIS_TYPE = 0
CLASSIFICATION_TYPE = U
NORAD_CAT_ID   = 67081
ELEMENT_SET_NO = 999
REV_AT_EPOCH   = 522
BSTAR          = .53056E-4
MEAN_MOTION_DOT = .2175E-4
MEAN_MOTION_DDOT = 0

CCSDS_OMM_VERS = 2.0
CREATION_DATE  = 
ORIGINATOR     = 

OBJECT_NAME    = STARLINK-36035
OBJECT_ID      = 2025-298H
CENTER_NAME    = EARTH
REF_FRAME      = TEME
TIME_SYSTEM    = UTC
MEAN_ELEMENT_THEORY = SGP/SGP4

EPOCH          = 2026-01-08T04:00:01.998720
MEAN_MOTION    = 15.42701910
ECCENTRICITY   = .0002896
INCLINATION    = 70.0002
RA_OF_ASC_NODE = 175.9781
ARG_OF_PERICENTER = 272.3453
MEAN_ANOMALY   = 286.1107

EPHEMERIS_TYPE = 0
CLASSIFICATION_TYPE = U
NORAD_CAT_ID   = 67082
ELEMENT_SET_NO = 999
REV_AT_EPOCH   = 522
BSTAR          = .50257E-4
MEAN_MOTION_DOT = .2052E-4
MEAN_MOTION_DDOT = 0

CCSDS_OMM_VERS = 2.0
CREATION_DATE  = 
ORIGINATOR     = 

OBJECT_NAME    = STARLINK-36170
OBJECT_ID      = 2025-298J
CENTER_NAME    = EARTH
REF_FRAME      = TEME
TIME_SYSTEM    = UTC
MEAN_ELEMENT_THEORY = SGP/SGP4

EPOCH          = 2026-01-08T04:08:08.097216
MEAN_MOTION    = 15.52572226
ECCENTRICITY   = .0003944
INCLINATION    = 70.0003
RA_OF_ASC_NODE = 175.8130
ARG_OF_PERICENTER = 274.9698
MEAN_ANOMALY   = 85.1039

EPHEMERIS_TYPE = 0
CLASSIFICATION_TYPE = U
NORAD_CAT_ID   = 67083
ELEMENT_SET_NO = 999
REV_AT_EPOCH   = 393
BSTAR          = .16189E-2
MEAN_MOTION_DOT = .100903E-2
MEAN_MOTION_DDOT = 0

CCSDS_OMM_VERS = 2.0
CREATION_DATE  = 
ORIGINATOR     = 

OBJECT_NAME    = STARLINK-36166
OBJECT_ID      = 2025-298K
CENTER_NAME    = EARTH
REF_FRAME      = TEME
TIME_SYSTEM    = UTC
MEAN_ELEMENT_THEORY = SGP/SGP4

EPOCH          = 2026-01-08T04:07:38.597664
MEAN_MOTION    = 15.52588032
ECCENTRICITY   = .000379
INCLINATION    = 70.0004
RA_OF_ASC_NODE = 175.8114
ARG_OF_PERICENTER = 279.7240
MEAN_ANOMALY   = 80.3519

EPHEMERIS_TYPE = 0
CLASSIFICATION_TYPE = U
NORAD_CAT_ID   = 67084
ELEMENT_SET_NO = 999
REV_AT_EPOCH   = 393
BSTAR          = .18175E-2
MEAN_MOTION_DOT = .113547E-2
MEAN_MOTION_DDOT = 0

CCSDS_OMM_VERS = 2.0
CREATION_DATE  = 
ORIGINATOR     = 

OBJECT_NAME    = STARLINK-35794
OBJECT_ID      = 2025-298L
CENTER_NAME    = EARTH
REF_FRAME      = TEME
TIME_SYSTEM    = UTC
MEAN_ELEMENT_THEORY = SGP/SGP4

EPOCH          = 2026-01-07T22:34:25.490784
MEAN_MOTION    = 15.42738580
ECCENTRICITY   = .0003064
INCLINATION    = 70.0008
RA_OF_ASC_NODE = 176.6137
ARG_OF_PERICENTER = 269.0488
MEAN_ANOMALY   = 91.0343

EPHEMERIS_TYPE = 0
CLASSIFICATION_TYPE = U
NORAD_CAT_ID   = 67085
ELEMENT_SET_NO = 999
REV_AT_EPOCH   = 389
BSTAR          = .10721E-2
MEAN_MOTION_DOT = .4713E-3
MEAN_MOTION_DDOT = 0

CCSDS_OMM_VERS = 2.0
CREATION_DATE  = 
ORIGINATOR     = 

OBJECT_NAME    = STARLINK-35841
OBJECT_ID      = 2025-298M
CENTER_NAME    = EARTH
REF_FRAME      = TEME
TIME_SYSTEM    = UTC
MEAN_ELEMENT_THEORY = SGP/SGP4

EPOCH          = 2026-01-07T17:17:12.202368
MEAN_MOTION    = 15.52539085
ECCENTRICITY   = .00032582
INCLINATION    = 70.0004
RA_OF_ASC_NODE = 177.0443
ARG_OF_PERICENTER = 275.8122
MEAN_ANOMALY   = 84.2693

EPHEMERIS_TYPE = 0
CLASSIFICATION_TYPE = U
NORAD_CAT_ID   = 67086
ELEMENT_SET_NO = 999
REV_AT_EPOCH   = 386
BSTAR          = .11533777E-2
MEAN_MOTION_DOT = .71481E-3
MEAN_MOTION_DDOT = 0

CCSDS_OMM_VERS = 2.0
CREATION_DATE  = 
ORIGINATOR     = 

OBJECT_NAME    = STARLINK-35842
OBJECT_ID      = 2025-298N
CENTER_NAME    = EARTH
REF_FRAME      = TEME
TIME_SYSTEM    = UTC
MEAN_ELEMENT_THEORY = SGP/SGP4

EPOCH          = 2026-01-08T04:17:19.267872
MEAN_MOTION    = 15.42746906
ECCENTRICITY   = .0003258
INCLINATION    = 70.0002
RA_OF_ASC_NODE = 176.2486
ARG_OF_PERICENTER = 268.5672
MEAN_ANOMALY   = 91.5136

EPHEMERIS_TYPE = 0
CLASSIFICATION_TYPE = U
NORAD_CAT_ID   = 67087
ELEMENT_SET_NO = 999
REV_AT_EPOCH   = 392
BSTAR          = .95458E-3
MEAN_MOTION_DOT = .41931E-3
MEAN_MOTION_DDOT = 0

CCSDS_OMM_VERS = 2.0
CREATION_DATE  = 
ORIGINATOR     = 

OBJECT_NAME    = STARLINK-35882
OBJECT_ID      = 2025-298P
CENTER_NAME    = EARTH
REF_FRAME      = TEME
TIME_SYSTEM    = UTC
MEAN_ELEMENT_THEORY = SGP/SGP4

EPOCH          = 2026-01-07T20:21:46.401408
MEAN_MOTION    = 15.52544469
ECCENTRICITY   = .00036811
INCLINATION    = 70.0003
RA_OF_ASC_NODE = 176.6891
ARG_OF_PERICENTER = 273.1978
MEAN_ANOMALY   = 86.8788

EPHEMERIS_TYPE = 0
CLASSIFICATION_TYPE = U
NORAD_CAT_ID   = 67088
ELEMENT_SET_NO = 999
REV_AT_EPOCH   = 388
BSTAR          = .96555588E-3
MEAN_MOTION_DOT = .5974E-3
MEAN_MOTION_DDOT = 0

CCSDS_OMM_VERS = 2.0
CREATION_DATE  = 
ORIGINATOR     = 

OBJECT_NAME    = STARLINK-35763
OBJECT_ID      = 2025-298Q
CENTER_NAME    = EARTH
REF_FRAME      = TEME
TIME_SYSTEM    = UTC
MEAN_ELEMENT_THEORY = SGP/SGP4

EPOCH          = 2026-01-08T04:00:01.998720
MEAN_MOTION    = 15.42705025
ECCENTRICITY   = .000333
INCLINATION    = 70.0003
RA_OF_ASC_NODE = 175.9121
ARG_OF_PERICENTER = 272.5449
MEAN_ANOMALY   = 341.8978

EPHEMERIS_TYPE = 0
CLASSIFICATION_TYPE = U
NORAD_CAT_ID   = 67089
ELEMENT_SET_NO = 999
REV_AT_EPOCH   = 522
BSTAR          = .53323E-4
MEAN_MOTION_DOT = .2187E-4
MEAN_MOTION_DDOT = 0

CCSDS_OMM_VERS = 2.0
CREATION_DATE  = 
ORIGINATOR     = 

OBJECT_NAME    = STARLINK-36060
OBJECT_ID      = 2025-298R
CENTER_NAME    = EARTH
REF_FRAME      = TEME
TIME_SYSTEM    = UTC
MEAN_ELEMENT_THEORY = SGP/SGP4

EPOCH          = 2026-01-08T04:00:01.998720
MEAN_MOTION    = 15.47922680
ECCENTRICITY   = .0003311
INCLINATION    = 70.0007
RA_OF_ASC_NODE = 175.8183
ARG_OF_PERICENTER = 264.5926
MEAN_ANOMALY   = 69.0779

EPHEMERIS_TYPE = 0
CLASSIFICATION_TYPE = U
NORAD_CAT_ID   = 67090
ELEMENT_SET_NO = 999
REV_AT_EPOCH   = 516
BSTAR          = -.43383E-1
MEAN_MOTION_DOT = -.2024624E-1
MEAN_MOTION_DDOT = 0

CCSDS_OMM_VERS = 2.0
CREATION_DATE  = 
ORIGINATOR     = 

OBJECT_NAME    = STARLINK-36097
OBJECT_ID      = 2025-298S
CENTER_NAME    = EARTH
REF_FRAME      = TEME
TIME_SYSTEM    = UTC
MEAN_ELEMENT_THEORY = SGP/SGP4

EPOCH          = 2026-01-08T04:00:01.998720
MEAN_MOTION    = 15.44960674
ECCENTRICITY   = .0003631
INCLINATION    = 70.0002
RA_OF_ASC_NODE = 175.8349
ARG_OF_PERICENTER = 276.1427
MEAN_ANOMALY   = 44.4640

EPHEMERIS_TYPE = 0
CLASSIFICATION_TYPE = U
NORAD_CAT_ID   = 67091
ELEMENT_SET_NO = 999
REV_AT_EPOCH   = 522
BSTAR          = -.53194E-1
MEAN_MOTION_DOT = -.2214771E-1
MEAN_MOTION_DDOT = 0

CCSDS_OMM_VERS = 2.0
CREATION_DATE  = 
ORIGINATOR     = 

OBJECT_NAME    = STARLINK-35792
OBJECT_ID      = 2025-298T
CENTER_NAME    = EARTH
REF_FRAME      = TEME
TIME_SYSTEM    = UTC
MEAN_ELEMENT_THEORY = SGP/SGP4

EPOCH          = 2026-01-08T04:00:01.998720
MEAN_MOTION    = 15.42666581
ECCENTRICITY   = .0003716
INCLINATION    = 69.9999
RA_OF_ASC_NODE = 175.8598
ARG_OF_PERICENTER = 277.4606
MEAN_ANOMALY   = 22.9614

EPHEMERIS_TYPE = 0
CLASSIFICATION_TYPE = U
NORAD_CAT_ID   = 67092
ELEMENT_SET_NO = 999
REV_AT_EPOCH   = 516
BSTAR          = .38904E-3
MEAN_MOTION_DOT = .16901E-3
MEAN_MOTION_DDOT = 0

CCSDS_OMM_VERS = 2.0
CREATION_DATE  = 
ORIGINATOR     = 

OBJECT_NAME    = STARLINK-35784
OBJECT_ID      = 2025-298U
CENTER_NAME    = EARTH
REF_FRAME      = TEME
TIME_SYSTEM    = UTC
MEAN_ELEMENT_THEORY = SGP/SGP4

EPOCH          = 2026-01-08T04:00:01.998720
MEAN_MOTION    = 15.42703314
ECCENTRICITY   = .0003342
INCLINATION    = 70.0002
RA_OF_ASC_NODE = 175.9630
ARG_OF_PERICENTER = 274.7962
MEAN_ANOMALY   = 294.6518

EPHEMERIS_TYPE = 0
CLASSIFICATION_TYPE = U
NORAD_CAT_ID   = 67093
ELEMENT_SET_NO = 999
REV_AT_EPOCH   = 522
BSTAR          = .40644E-4
MEAN_MOTION_DOT = .1631E-4
MEAN_MOTION_DDOT = 0

CCSDS_OMM_VERS = 2.0
CREATION_DATE  = 
ORIGINATOR     = 

OBJECT_NAME    = STARLINK-36202
OBJECT_ID      = 2025-298V
CENTER_NAME    = EARTH
REF_FRAME      = TEME
TIME_SYSTEM    = UTC
MEAN_ELEMENT_THEORY = SGP/SGP4

EPOCH          = 2026-01-08T04:00:01.998720
MEAN_MOTION    = 15.42701824
ECCENTRICITY   = .000346
INCLINATION    = 70.0003
RA_OF_ASC_NODE = 175.9366
ARG_OF_PERICENTER = 273.0191
MEAN_ANOMALY   = 319.4221

EPHEMERIS_TYPE = 0
CLASSIFICATION_TYPE = U
NORAD_CAT_ID   = 67094
ELEMENT_SET_NO = 999
REV_AT_EPOCH   = 522
BSTAR          = .10467E-3
MEAN_MOTION_DOT = .4436E-4
MEAN_MOTION_DDOT = 0

CCSDS_OMM_VERS = 2.0
CREATION_DATE  = 
ORIGINATOR     = 

OBJECT_NAME    = STARLINK-36227
OBJECT_ID      = 2025-298W
CENTER_NAME    = EARTH
REF_FRAME      = TEME
TIME_SYSTEM    = UTC
MEAN_ELEMENT_THEORY = SGP/SGP4

EPOCH          = 2026-01-08T04:00:01.998720
MEAN_MOTION    = 15.49548895
ECCENTRICITY   = .0003592
INCLINATION    = 70.0002
RA_OF_ASC_NODE = 175.8047
ARG_OF_PERICENTER = 267.8819
MEAN_ANOMALY   = 80.1756

EPHEMERIS_TYPE = 0
CLASSIFICATION_TYPE = U
NORAD_CAT_ID   = 67095
ELEMENT_SET_NO = 999
REV_AT_EPOCH   = 516
BSTAR          = -.42842E-1
MEAN_MOTION_DOT = -.2107256E-1
MEAN_MOTION_DDOT = 0

